{
  "type": "FeatureCollection",
  "features": [
    {
      "type": "Feature",
      "properties": {
        "norad_id": 31307,
        "name": "GALAXY 17 (G-17)",
        "group": "intelsat",
        "lat": -0.8167214258021331,
        "lon": -78.81071747109206,
        "alt_km": 35767.341184271965,
        "timestamp": "2025-12-03T19:33:06.647151+00:00",
        "meta_object_name": "GALAXY 17 (G-17)",
        "meta_object_id": "2007-016B",
        "meta_epoch": "2025-12-03T09:55:35.228352",
        "meta_mean_motion": 1.00270439,
        "meta_eccentricity": 0.0006113,
        "meta_inclination": 2.4746,
        "meta_ra_of_asc_node": 82.392,
        "meta_arg_of_pericenter": 156.6812,
        "meta_mean_anomaly": 257.3305,
        "meta_ephemeris_type": 0,
        "meta_classification_type": "U",
        "meta_norad_cat_id": 31307,
        "meta_element_set_no": 999,
        "meta_rev_at_epoch": 6784,
        "meta_bstar": 0,
        "meta_mean_motion_dot": -1.89e-06,
        "meta_mean_motion_ddot": 0,
        "tle_line1": "1 31307U 07016B   25337.41360218 -.00000189  00000+0  00000+0 0  9990",
        "tle_line2": "2 31307   2.4746  82.3920 0006113 156.6812 257.3305  1.00270439 67849"
      },
      "geometry": {
        "type": "Point",
        "coordinates": [
          -78.81071747109206,
          -0.8167214258021331
        ]
      }
    },
    {
      "type": "Feature",
      "properties": {
        "norad_id": 31862,
        "name": "DIRECTV 10",
        "group": "intelsat",
        "lat": -0.012695769202704304,
        "lon": -96.6408697219752,
        "alt_km": 35786.00722003358,
        "timestamp": "2025-12-03T19:33:06.647163+00:00",
        "meta_object_name": "DIRECTV 10",
        "meta_object_id": "2007-032A",
        "meta_epoch": "2025-12-03T08:07:45.558336",
        "meta_mean_motion": 1.00270968,
        "meta_eccentricity": 2.91e-05,
        "meta_inclination": 0.0057,
        "meta_ra_of_asc_node": 272.492,
        "meta_arg_of_pericenter": 275.3626,
        "meta_mean_anomaly": 263.7199,
        "meta_ephemeris_type": 0,
        "meta_classification_type": "U",
        "meta_norad_cat_id": 31862,
        "meta_element_set_no": 999,
        "meta_rev_at_epoch": 4363,
        "meta_bstar": 0,
        "meta_mean_motion_dot": -8.4e-07,
        "meta_mean_motion_ddot": 0,
        "tle_line1": "1 31862U 07032A   25337.33872174 -.00000084  00000+0  00000+0 0  9998",
        "tle_line2": "2 31862   0.0057 272.4920 0000291 275.3626 263.7199  1.00270968 43639"
      },
      "geometry": {
        "type": "Point",
        "coordinates": [
          -96.6408697219752,
          -0.012695769202704304
        ]
      }
    },
    {
      "type": "Feature",
      "properties": {
        "norad_id": 32253,
        "name": "INTELSAT 11 (IS-11)",
        "group": "intelsat",
        "lat": -0.559192733929922,
        "lon": -88.80804438942798,
        "alt_km": 36098.26361549317,
        "timestamp": "2025-12-03T19:33:06.647174+00:00",
        "meta_object_name": "INTELSAT 11 (IS-11)",
        "meta_object_id": "2007-044B",
        "meta_epoch": "2025-12-03T09:53:12.955200",
        "meta_mean_motion": 0.99047262,
        "meta_eccentricity": 0.0009282,
        "meta_inclination": 3.0539,
        "meta_ra_of_asc_node": 81.0808,
        "meta_arg_of_pericenter": 161.1046,
        "meta_mean_anomaly": 245.3925,
        "meta_ephemeris_type": 0,
        "meta_classification_type": "U",
        "meta_norad_cat_id": 32253,
        "meta_element_set_no": 999,
        "meta_rev_at_epoch": 6651,
        "meta_bstar": 0,
        "meta_mean_motion_dot": 7e-08,
        "meta_mean_motion_ddot": 0,
        "tle_line1": "1 32253U 07044B   25337.41195550  .00000007  00000+0  00000+0 0  9995",
        "tle_line2": "2 32253   3.0539  81.0808 0009282 161.1046 245.3925  0.99047262 66519"
      },
      "geometry": {
        "type": "Point",
        "coordinates": [
          -88.80804438942798,
          -0.559192733929922
        ]
      }
    },
    {
      "type": "Feature",
      "properties": {
        "norad_id": 32388,
        "name": "HORIZONS-2",
        "group": "intelsat",
        "lat": -1.040977694416332,
        "lon": -67.61661848637891,
        "alt_km": 35767.69120116834,
        "timestamp": "2025-12-03T19:33:06.647186+00:00",
        "meta_object_name": "HORIZONS-2",
        "meta_object_id": "2007-063B",
        "meta_epoch": "2025-12-03T09:58:49.916064",
        "meta_mean_motion": 1.00272062,
        "meta_eccentricity": 0.0004974,
        "meta_inclination": 2.0954,
        "meta_ra_of_asc_node": 83.0628,
        "meta_arg_of_pericenter": 180.814,
        "meta_mean_anomaly": 244.5524,
        "meta_ephemeris_type": 0,
        "meta_classification_type": "U",
        "meta_norad_cat_id": 32388,
        "meta_element_set_no": 999,
        "meta_rev_at_epoch": 6585,
        "meta_bstar": 0,
        "meta_mean_motion_dot": -2.36e-06,
        "meta_mean_motion_ddot": 0,
        "tle_line1": "1 32388U 07063B   25337.41585551 -.00000236  00000+0  00000+0 0  9994",
        "tle_line2": "2 32388   2.0954  83.0628 0004974 180.8140 244.5524  1.00272062 65859"
      },
      "geometry": {
        "type": "Point",
        "coordinates": [
          -67.61661848637891,
          -1.040977694416332
        ]
      }
    },
    {
      "type": "Feature",
      "properties": {
        "norad_id": 32729,
        "name": "DIRECTV 11",
        "group": "intelsat",
        "lat": -0.005059222943366554,
        "lon": -93.04347956178152,
        "alt_km": 35786.98527527004,
        "timestamp": "2025-12-03T19:33:06.647198+00:00",
        "meta_object_name": "DIRECTV 11",
        "meta_object_id": "2008-013A",
        "meta_epoch": "2025-12-03T08:08:52.950336",
        "meta_mean_motion": 1.00268433,
        "meta_eccentricity": 2.81e-05,
        "meta_inclination": 0.0112,
        "meta_ra_of_asc_node": 227.5771,
        "meta_arg_of_pericenter": 311.5736,
        "meta_mean_anomaly": 276.3071,
        "meta_ephemeris_type": 0,
        "meta_classification_type": "U",
        "meta_norad_cat_id": 32729,
        "meta_element_set_no": 999,
        "meta_rev_at_epoch": 4363,
        "meta_bstar": 0,
        "meta_mean_motion_dot": -1.07e-06,
        "meta_mean_motion_ddot": 0,
        "tle_line1": "1 32729U 08013A   25337.33950174 -.00000107  00000+0  00000+0 0  9994",
        "tle_line2": "2 32729   0.0112 227.5771 0000281 311.5736 276.3071  1.00268433 43636"
      },
      "geometry": {
        "type": "Point",
        "coordinates": [
          -93.04347956178152,
          -0.005059222943366554
        ]
      }
    },
    {
      "type": "Feature",
      "properties": {
        "norad_id": 32951,
        "name": "GALAXY 18 (G-18)",
        "group": "intelsat",
        "lat": -0.033063179326815566,
        "lon": -116.85087927108101,
        "alt_km": 35772.05691343196,
        "timestamp": "2025-12-03T19:33:06.647209+00:00",
        "meta_object_name": "GALAXY 18 (G-18)",
        "meta_object_id": "2008-024A",
        "meta_epoch": "2025-12-03T08:01:53.619168",
        "meta_mean_motion": 1.00272272,
        "meta_eccentricity": 0.0003386,
        "meta_inclination": 0.018,
        "meta_ra_of_asc_node": 10.9677,
        "meta_arg_of_pericenter": 247.1815,
        "meta_mean_anomaly": 171.7557,
        "meta_ephemeris_type": 0,
        "meta_classification_type": "U",
        "meta_norad_cat_id": 32951,
        "meta_element_set_no": 999,
        "meta_rev_at_epoch": 4388,
        "meta_bstar": 0,
        "meta_mean_motion_dot": 4.4e-07,
        "meta_mean_motion_ddot": 0,
        "tle_line1": "1 32951U 08024A   25337.33464837  .00000044  00000+0  00000+0 0  9998",
        "tle_line2": "2 32951   0.0180  10.9677 0003386 247.1815 171.7557  1.00272272 43888"
      },
      "geometry": {
        "type": "Point",
        "coordinates": [
          -116.85087927108101,
          -0.033063179326815566
        ]
      }
    },
    {
      "type": "Feature",
      "properties": {
        "norad_id": 33153,
        "name": "INTELSAT 25 (IS-25)",
        "group": "intelsat",
        "lat": -2.089563408313826,
        "lon": -25.28806869516612,
        "alt_km": 35780.55675648424,
        "timestamp": "2025-12-03T19:33:06.647221+00:00",
        "meta_object_name": "INTELSAT 25 (IS-25)",
        "meta_object_id": "2008-034A",
        "meta_epoch": "2025-12-03T08:28:06.107808",
        "meta_mean_motion": 1.00271413,
        "meta_eccentricity": 0.0005342,
        "meta_inclination": 2.2016,
        "meta_ra_of_asc_node": 82.7527,
        "meta_arg_of_pericenter": 177.2563,
        "meta_mean_anomaly": 267.969,
        "meta_ephemeris_type": 0,
        "meta_classification_type": "U",
        "meta_norad_cat_id": 33153,
        "meta_element_set_no": 999,
        "meta_rev_at_epoch": 6373,
        "meta_bstar": 0,
        "meta_mean_motion_dot": -2.06e-06,
        "meta_mean_motion_ddot": 0,
        "tle_line1": "1 33153U 08034A   25337.35284847 -.00000206  00000+0  00000+0 0  9998",
        "tle_line2": "2 33153   2.2016  82.7527 0005342 177.2563 267.9690  1.00271413 63731"
      },
      "geometry": {
        "type": "Point",
        "coordinates": [
          -25.28806869516612,
          -2.089563408313826
        ]
      }
    }
  ]
}